OBJECT_NAME,OBJECT_ID,EPOCH,MEAN_MOTION,ECCENTRICITY,INCLINATION,RA_OF_ASC_NODE,ARG_OF_PERICENTER,MEAN_ANOMALY,EPHEMERIS_TYPE,CLASSIFICATION_TYPE,NORAD_CAT_ID,ELEMENT_SET_NO,REV_AT_EPOCH,BSTAR,MEAN_MOTION_DOT,MEAN_MOTION_DDOT
ONEWEB-0410,2022-012A,2026-07-14T11:28:50.027520,13.17650292,.00018174,87.9154,0.4301,50.2213,309.9078,0,U,51622,999,21729,.43716121E-4,.3E-6,0
ONEWEB-0411,2022-012B,2026-07-14T13:52:53.056704,13.10376749,.00022969,87.8826,30.8097,96.7642,263.3747,0,U,51623,999,21287,-.15112684E-2,-.515E-5,0
ONEWEB-0415,2022-012C,2026-07-14T13:47:59.061696,13.10376479,.00021033,87.8819,30.8078,87.6069,272.5299,0,U,51624,999,21287,-.17844831E-2,-.61E-5,0
ONEWEB-0416,2022-012D,2026-07-14T14:05:06.729216,13.10377811,.00022104,87.8816,30.8226,84.0735,276.0644,0,U,51625,999,21291,-.36191772E-3,-.114E-5,0
ONEWEB-0422,2022-012E,2026-07-14T11:43:24.487968,13.17650859,.00018438,87.9152,0.4287,112.8591,247.2735,0,U,51626,999,21740,.84091525E-4,.46E-6,0
ONEWEB-0423,2022-012F,2026-07-14T11:33:41.813280,13.17649127,.00017927,87.9144,0.4336,90.3024,269.8313,0,U,51627,999,21729,.54115333E-4,.34E-6,0
ONEWEB-0425,2022-012G,2026-07-14T14:19:47.675712,13.10377290,.00018148,87.8819,30.8043,75.8540,284.2789,0,U,51628,999,21291,.10758017E-2,.388E-5,0
ONEWEB-0428,2022-012H,2026-07-14T13:50:25.929600,13.10376708,.00018125,87.8813,30.8150,88.2724,271.8611,0,U,51629,999,21287,-.1702924E-2,-.582E-5,0
ONEWEB-0431,2022-012J,2026-07-14T13:06:15.249312,13.10369422,.00023377,87.8814,30.8141,97.0250,263.1143,0,U,51630,999,21292,.6958179E-3,.256E-5,0
ONEWEB-0434,2022-012K,2026-07-14T14:24:53.063424,13.10376469,.00015859,87.8823,30.8294,67.7552,292.3744,0,U,51631,999,21291,.14389243E-2,.515E-5,0
ONEWEB-0435,2022-012L,2026-07-14T12:44:29.733216,13.10376705,.00018644,87.8814,30.8272,98.6614,261.4725,0,U,51632,999,21289,.18526887E-2,.659E-5,0
ONEWEB-0436,2022-012M,2026-07-14T11:21:32.410656,13.17648043,.00019145,87.9152,0.4188,99.0128,261.1220,0,U,51633,999,21727,.64502866E-4,.38E-6,0
ONEWEB-0438,2022-012N,2026-07-14T14:12:25.672320,13.10378193,.00018405,87.8817,30.8193,79.5226,280.6109,0,U,51634,999,21293,.29485825E-3,.116E-5,0
ONEWEB-0439,2022-012P,2026-07-14T14:17:20.044032,13.10377382,.00017826,87.8818,30.8057,86.5535,273.5796,0,U,51635,999,21291,.73819146E-3,.27E-5,0
ONEWEB-0442,2022-012Q,2026-07-14T11:10:37.490016,13.17651161,.00017536,87.9144,0.4506,74.3203,285.8122,0,U,51636,999,21726,.7271812E-5,.16E-6,0
ONEWEB-0443,2022-012R,2026-07-14T11:38:32.853408,13.17647725,.00015175,87.9142,0.4479,94.8533,265.2771,0,U,51637,999,21731,.2919537E-4,.24E-6,0
ONEWEB-0444,2022-012S,2026-07-14T14:02:38.932512,13.10377261,.0001636,87.8821,30.8066,89.0729,271.0586,0,U,51638,999,21292,-.4558251E-3,-.146E-5,0
ONEWEB-0445,2022-012T,2026-07-14T14:31:59.440512,13.10377335,.00019363,87.8824,30.7926,85.6512,274.4837,0,U,51639,999,21293,.16701742E-2,.596E-5,0
ONEWEB-0446,2022-012U,2026-07-14T14:00:11.650752,13.10374448,.00021396,87.8818,30.8239,82.6471,277.4900,0,U,51640,999,21291,-.11173433E-2,-.377E-5,0
ONEWEB-0448,2022-012V,2026-07-14T14:07:32.331360,13.10378956,.00017842,87.8817,30.8188,87.4099,272.7232,0,U,51641,999,21288,-.43228538E-3,-.138E-5,0
ONEWEB-0449,2022-012W,2026-07-14T14:14:52.384704,13.10376829,.00018965,87.8822,30.8047,68.2542,291.8787,0,U,51642,999,21289,.63665401E-3,.235E-5,0
ONEWEB-0451,2022-012X,2026-07-14T11:16:40.777824,13.17651268,.00016994,87.9157,0.4177,86.3362,273.7964,0,U,51643,999,21725,-.62058275E-4,-.11E-6,0
ONEWEB-0452,2022-012Y,2026-07-14T11:14:15.057312,13.17647863,.0001567,87.9145,0.4522,90.6823,269.4488,0,U,51644,999,21726,.32159748E-4,.25E-6,0
ONEWEB-0456,2022-012AA,2026-07-14T14:27:04.975488,13.10374297,.00017756,87.8830,30.7920,91.8496,268.2834,0,U,51646,999,21293,.15899647E-2,.568E-5,0
ONEWEB-0457,2022-012AB,2026-07-14T13:55:06.808224,13.10378286,.00021074,87.8818,30.8123,80.0958,280.0407,0,U,51647,999,21293,-.13190957E-2,-.448E-5,0
ONEWEB-0458,2022-012AC,2026-07-14T14:25:52.978368,13.10374886,.00016334,87.8820,30.7962,86.2444,273.8870,0,U,51648,999,21289,.1488672E-2,.532E-5,0
ONEWEB-0461,2022-012AD,2026-07-14T11:45:50.855616,13.17649776,.00019552,87.9153,0.4274,89.7729,270.3626,0,U,51649,999,21748,-.24921322E-4,.3E-7,0
ONEWEB-0463,2022-012AE,2026-07-14T11:19:06.978720,13.17650923,.00019725,87.9146,0.4511,89.5908,270.5450,0,U,51650,999,21726,-.6324381E-4,-.12E-6,0
ONEWEB-0464,2022-012AF,2026-07-14T14:22:13.318464,13.10375167,.00015921,87.8815,30.8178,93.7940,266.3369,0,U,51651,999,21291,.11609213E-2,.418E-5,0
ONEWEB-0468,2022-012AG,2026-07-14T14:29:31.869312,13.10373618,.00016867,87.8813,30.8098,94.4291,265.7029,0,U,51652,999,21289,.18642127E-2,.663E-5,0
