ONEWEB-0410             
1 51622U 22012A   26195.47835680  .00000030  00000+0  43716-4 0  9994
2 51622  87.9154   0.4301 0001817  50.2213 309.9078 13.17650292217293
ONEWEB-0411             
1 51623U 22012B   26195.57839186 -.00000515  00000+0 -15113-2 0  9999
2 51623  87.8826  30.8097 0002296  96.7642 263.3747 13.10376749212871
ONEWEB-0415             
1 51624U 22012C   26195.57498914 -.00000610  00000+0 -17845-2 0  9990
2 51624  87.8819  30.8078 0002103  87.6069 272.5299 13.10376479212876
ONEWEB-0416             
1 51625U 22012D   26195.58688344 -.00000114  00000+0 -36192-3 0  9996
2 51625  87.8816  30.8226 0002210  84.0735 276.0644 13.10377811212918
ONEWEB-0422             
1 51626U 22012E   26195.48847787  .00000046  00000+0  84092-4 0  9999
2 51626  87.9152   0.4287 0001843 112.8591 247.2735 13.17650859217407
ONEWEB-0423             
1 51627U 22012F   26195.48173395  .00000034  00000+0  54115-4 0  9997
2 51627  87.9144   0.4336 0001792  90.3024 269.8313 13.17649127217293
ONEWEB-0425             
1 51628U 22012G   26195.59707958  .00000388  00000+0  10758-2 0  9993
2 51628  87.8819  30.8043 0001814  75.8540 284.2789 13.10377290212914
ONEWEB-0428             
1 51629U 22012H   26195.57668900 -.00000582  00000+0 -17029-2 0  9991
2 51629  87.8813  30.8150 0001812  88.2724 271.8611 13.10376708212872
ONEWEB-0431             
1 51630U 22012J   26195.54600983  .00000256  00000+0  69582-3 0  9995
2 51630  87.8814  30.8141 0002337  97.0250 263.1143 13.10369422212925
ONEWEB-0434             
1 51631U 22012K   26195.60061416  .00000515  00000+0  14389-2 0  9997
2 51631  87.8823  30.8294 0001585  67.7552 292.3744 13.10376469212917
ONEWEB-0435             
1 51632U 22012L   26195.53089969  .00000659  00000+0  18527-2 0  9990
2 51632  87.8814  30.8272 0001864  98.6614 261.4725 13.10376705212892
ONEWEB-0436             
1 51633U 22012M   26195.47329179  .00000038  00000+0  64503-4 0  9992
2 51633  87.9152   0.4188 0001914  99.0128 261.1220 13.17648043217277
ONEWEB-0438             
1 51634U 22012N   26195.59196380  .00000116  00000+0  29486-3 0  9999
2 51634  87.8817  30.8193 0001840  79.5226 280.6109 13.10378193212937
ONEWEB-0439             
1 51635U 22012P   26195.59537088  .00000270  00000+0  73819-3 0  9994
2 51635  87.8818  30.8057 0001782  86.5535 273.5796 13.10377382212914
ONEWEB-0442             
1 51636U 22012Q   26195.46571169  .00000016  00000+0  72718-5 0  9996
2 51636  87.9144   0.4506 0001753  74.3203 285.8122 13.17651161217264
ONEWEB-0443             
1 51637U 22012R   26195.48510247  .00000024  00000+0  29195-4 0  9998
2 51637  87.9142   0.4479 0001517  94.8533 265.2771 13.17647725217312
ONEWEB-0444             
1 51638U 22012S   26195.58517283 -.00000146  00000+0 -45583-3 0  9992
2 51638  87.8821  30.8066 0001636  89.0729 271.0586 13.10377261212929
ONEWEB-0445             
1 51639U 22012T   26195.60554908  .00000596  00000+0  16702-2 0  9998
2 51639  87.8824  30.7926 0001936  85.6512 274.4837 13.10377335212931
ONEWEB-0446             
1 51640U 22012U   26195.58346818 -.00000377  00000+0 -11173-2 0  9992
2 51640  87.8818  30.8239 0002139  82.6471 277.4900 13.10374448212915
ONEWEB-0448             
1 51641U 22012V   26195.58856865 -.00000138  00000+0 -43229-3 0  9994
2 51641  87.8817  30.8188 0001784  87.4099 272.7232 13.10378956212882
ONEWEB-0449             
1 51642U 22012W   26195.59366186  .00000235  00000+0  63665-3 0  9990
2 51642  87.8822  30.8047 0001896  68.2542 291.8787 13.10376829212892
ONEWEB-0451             
1 51643U 22012X   26195.46991641 -.00000011  00000+0 -62058-4 0  9997
2 51643  87.9157   0.4177 0001699  86.3362 273.7964 13.17651268217255
ONEWEB-0452             
1 51644U 22012Y   26195.46822983  .00000025  00000+0  32160-4 0  9994
2 51644  87.9145   0.4522 0001567  90.6823 269.4488 13.17647863217261
ONEWEB-0456             
1 51646U 22012AA  26195.60214092  .00000568  00000+0  15900-2 0  9991
2 51646  87.8830  30.7920 0001775  91.8496 268.2834 13.10374297212933
ONEWEB-0457             
1 51647U 22012AB  26195.57993991 -.00000448  00000+0 -13191-2 0  9999
2 51647  87.8818  30.8123 0002107  80.0958 280.0407 13.10378286212939
ONEWEB-0458             
1 51648U 22012AC  26195.60130762  .00000532  00000+0  14887-2 0  9998
2 51648  87.8820  30.7962 0001633  86.2444 273.8870 13.10374886212895
ONEWEB-0461             
1 51649U 22012AD  26195.49017194  .00000003  00000+0 -24921-4 0  9995
2 51649  87.9153   0.4274 0001955  89.7729 270.3626 13.17649776217488
ONEWEB-0463             
1 51650U 22012AE  26195.47160855 -.00000012  00000+0 -63244-4 0  9990
2 51650  87.9146   0.4511 0001972  89.5908 270.5450 13.17650923217261
ONEWEB-0464             
1 51651U 22012AF  26195.59876526  .00000418  00000+0  11609-2 0  9997
2 51651  87.8815  30.8178 0001592  93.7940 266.3369 13.10375167212917
ONEWEB-0468             
1 51652U 22012AG  26195.60384108  .00000663  00000+0  18642-2 0  9996
2 51652  87.8813  30.8098 0001686  94.4291 265.7029 13.10373618212890
